{
    "links": {
        "self": "http://www.neowsapp.com/rest/v1/neo/3831864?api_key=iIulBulltgU6a56xZRHN4H3l9WmuAYTsLGpBGhQ2"
    },
    "id": "3831864",
    "neo_reference_id": "3831864",
    "name": "(2018 TF6)",
    "designation": "2018 TF6",
    "nasa_jpl_url": "http://ssd.jpl.nasa.gov/sbdb.cgi?sstr=3831864",
    "absolute_magnitude_h": 26.3,
    "estimated_diameter": {
        "kilometers": {
            "estimated_diameter_min": 0.0146067964,
            "estimated_diameter_max": 0.0326617897
        },
        "meters": {
            "estimated_diameter_min": 14.6067964271,
            "estimated_diameter_max": 32.6617897446
        },
        "miles": {
            "estimated_diameter_min": 0.0090762397,
            "estimated_diameter_max": 0.020295089
        },
        "feet": {
            "estimated_diameter_min": 47.92256199,
            "estimated_diameter_max": 107.1581062656
        }
    },
    "is_potentially_hazardous_asteroid": false,
    "close_approach_data": [
        {
            "close_approach_date": "2018-10-19",
            "close_approach_date_full": "2018-Oct-19 12:23",
            "epoch_date_close_approach": 1539951780000,
            "relative_velocity": {
                "kilometers_per_second": "5.9630718187",
                "kilometers_per_hour": "21467.0585472118",
                "miles_per_hour": "13338.7953511828"
            },
            "miss_distance": {
                "astronomical": "0.0565970276",
                "lunar": "22.0162437364",
                "kilometers": "8466794.777291212",
                "miles": "5261022.3177622456"
            },
            "orbiting_body": "Earth"
        }
    ],
    "orbital_data": {
        "orbit_id": "3",
        "orbit_determination_date": "2018-11-06 06:08:39",
        "first_observation_date": "2018-10-15",
        "last_observation_date": "2018-11-05",
        "data_arc_in_days": 21,
        "observations_used": 22,
        "orbit_uncertainty": "8",
        "minimum_orbit_intersection": ".0565588",
        "jupiter_tisserand_invariant": "3.581",
        "epoch_osculation": "2458407.5",
        "eccentricity": ".4980049534745888",
        "semi_major_axis": "2.09597121782758",
        "inclination": "3.347912986190117",
        "ascending_node_longitude": "32.09497631894718",
        "orbital_period": "1108.348655301709",
        "perihelion_distance": "1.052167169009279",
        "perihelion_argument": "354.6539489829743",
        "aphelion_distance": "3.139775266645882",
        "perihelion_time": "2458411.903495863535",
        "mean_anomaly": "358.5697113419233",
        "mean_motion": ".3248075398278014",
        "equinox": "J2000",
        "orbit_class": {
            "orbit_class_type": "AMO",
            "orbit_class_description": "Near-Earth asteroid orbits similar to that of 1221 Amor",
            "orbit_class_range": "1.017 AU < q (perihelion) < 1.3 AU"
        }
    },
    "is_sentry_object": false
}